{
  "type": "FeatureCollection",
  "features": [
    {
      "type": "Feature",
      "properties": {
        "norad_id": 30182,
        "name": "FENGYUN 1C DEB",
        "group": "fengyun-1c-debris",
        "lat": 56.6808808584114,
        "lon": -119.31602430065598,
        "alt_km": 930.9032580696385,
        "timestamp": "2025-12-21T18:54:58.771046+00:00",
        "meta_object_name": "FENGYUN 1C DEB",
        "meta_object_id": "1999-025UP",
        "meta_epoch": "2025-12-21T09:50:38.954112",
        "meta_mean_motion": 13.96459647,
        "meta_eccentricity": 0.00745743,
        "meta_inclination": 99.0643,
        "meta_ra_of_asc_node": 46.2573,
        "meta_arg_of_pericenter": 358.9144,
        "meta_mean_anomaly": 23.2174,
        "meta_ephemeris_type": 0,
        "meta_classification_type": "U",
        "meta_norad_cat_id": 30182,
        "meta_element_set_no": 999,
        "meta_rev_at_epoch": 96429,
        "meta_bstar": 4.9303918e-05,
        "meta_mean_motion_dot": 2.6e-07,
        "meta_mean_motion_ddot": 0,
        "tle_line1": "1 30182U 99025UP  25355.41017308  .00000026  00000+0  49304-4 0  9994",
        "tle_line2": "2 30182  99.0643  46.2573 0074574 358.9144  23.2174 13.96459647964298"
      },
      "geometry": {
        "type": "Point",
        "coordinates": [
          -119.31602430065598,
          56.6808808584114
        ]
      }
    },
    {
      "type": "Feature",
      "properties": {
        "norad_id": 30183,
        "name": "FENGYUN 1C DEB",
        "group": "fengyun-1c-debris",
        "lat": 81.14834477018744,
        "lon": -58.78676828188215,
        "alt_km": 856.4351002130597,
        "timestamp": "2025-12-21T18:54:58.771056+00:00",
        "meta_object_name": "FENGYUN 1C DEB",
        "meta_object_id": "1999-025UQ",
        "meta_epoch": "2025-12-21T14:06:54.006048",
        "meta_mean_motion": 14.12678529,
        "meta_eccentricity": 0.00263106,
        "meta_inclination": 98.7877,
        "meta_ra_of_asc_node": 37.6592,
        "meta_arg_of_pericenter": 227.6606,
        "meta_mean_anomaly": 286.7257,
        "meta_ephemeris_type": 0,
        "meta_classification_type": "U",
        "meta_norad_cat_id": 30183,
        "meta_element_set_no": 999,
        "meta_rev_at_epoch": 97268,
        "meta_bstar": 0.00044527481,
        "meta_mean_motion_dot": 7.84e-06,
        "meta_mean_motion_ddot": 0,
        "tle_line1": "1 30183U 99025UQ  25355.58812507  .00000784  00000+0  44527-3 0  9999",
        "tle_line2": "2 30183  98.7877  37.6592 0026310 227.6606 286.7257 14.12678529972680"
      },
      "geometry": {
        "type": "Point",
        "coordinates": [
          -58.78676828188215,
          81.14834477018744
        ]
      }
    },
    {
      "type": "Feature",
      "properties": {
        "norad_id": 30191,
        "name": "FENGYUN 1C DEB",
        "group": "fengyun-1c-debris",
        "lat": -15.845286386830246,
        "lon": 70.28743345635668,
        "alt_km": 661.8938031324806,
        "timestamp": "2025-12-21T18:54:58.771066+00:00",
        "meta_object_name": "FENGYUN 1C DEB",
        "meta_object_id": "1999-025UY",
        "meta_epoch": "2025-12-21T04:29:22.252704",
        "meta_mean_motion": 14.78152046,
        "meta_eccentricity": 0.00971224,
        "meta_inclination": 98.7756,
        "meta_ra_of_asc_node": 67.12,
        "meta_arg_of_pericenter": 236.6527,
        "meta_mean_anomaly": 149.5129,
        "meta_ephemeris_type": 0,
        "meta_classification_type": "U",
        "meta_norad_cat_id": 30191,
        "meta_element_set_no": 999,
        "meta_rev_at_epoch": 400,
        "meta_bstar": 0.00077178366,
        "meta_mean_motion_dot": 5.983e-05,
        "meta_mean_motion_ddot": 0,
        "tle_line1": "1 30191U 99025UY  25355.18706311  .00005983  00000+0  77178-3 0  9993",
        "tle_line2": "2 30191  98.7756  67.1200 0097122 236.6527 149.5129 14.78152046  4009"
      },
      "geometry": {
        "type": "Point",
        "coordinates": [
          70.28743345635668,
          -15.845286386830246
        ]
      }
    },
    {
      "type": "Feature",
      "properties": {
        "norad_id": 30193,
        "name": "FENGYUN 1C DEB",
        "group": "fengyun-1c-debris",
        "lat": -17.627301375372387,
        "lon": 81.53297655342625,
        "alt_km": 734.8245886338354,
        "timestamp": "2025-12-21T18:54:58.771076+00:00",
        "meta_object_name": "FENGYUN 1C DEB",
        "meta_object_id": "1999-025VA",
        "meta_epoch": "2025-12-21T12:11:52.774080",
        "meta_mean_motion": 14.49161516,
        "meta_eccentricity": 0.01074941,
        "meta_inclination": 98.7569,
        "meta_ra_of_asc_node": 264.0498,
        "meta_arg_of_pericenter": 106.8254,
        "meta_mean_anomaly": 70.12,
        "meta_ephemeris_type": 0,
        "meta_classification_type": "U",
        "meta_norad_cat_id": 30193,
        "meta_element_set_no": 999,
        "meta_rev_at_epoch": 99293,
        "meta_bstar": 0.00050441348,
        "meta_mean_motion_dot": 2.014e-05,
        "meta_mean_motion_ddot": 0,
        "tle_line1": "1 30193U 99025VA  25355.50824970  .00002014  00000+0  50441-3 0  9999",
        "tle_line2": "2 30193  98.7569 264.0498 0107494 106.8254  70.1200 14.49161516992936"
      },
      "geometry": {
        "type": "Point",
        "coordinates": [
          81.53297655342625,
          -17.627301375372387
        ]
      }
    },
    {
      "type": "Feature",
      "properties": {
        "norad_id": 30196,
        "name": "FENGYUN 1C DEB",
        "group": "fengyun-1c-debris",
        "lat": -54.11707431504112,
        "lon": 100.2451292912544,
        "alt_km": 814.2662828541515,
        "timestamp": "2025-12-21T18:54:58.771085+00:00",
        "meta_object_name": "FENGYUN 1C DEB",
        "meta_object_id": "1999-025VD",
        "meta_epoch": "2025-12-21T12:30:55.909152",
        "meta_mean_motion": 14.25850056,
        "meta_eccentricity": 0.00866207,
        "meta_inclination": 98.6398,
        "meta_ra_of_asc_node": 87.8498,
        "meta_arg_of_pericenter": 37.8285,
        "meta_mean_anomaly": 339.9907,
        "meta_ephemeris_type": 0,
        "meta_classification_type": "U",
        "meta_norad_cat_id": 30196,
        "meta_element_set_no": 999,
        "meta_rev_at_epoch": 98490,
        "meta_bstar": 4.6454671e-05,
        "meta_mean_motion_dot": 7.2e-07,
        "meta_mean_motion_ddot": 0,
        "tle_line1": "1 30196U 99025VD  25355.52148043  .00000072  00000+0  46455-4 0  9997",
        "tle_line2": "2 30196  98.6398  87.8498 0086620  37.8285 339.9907 14.25850056984909"
      },
      "geometry": {
        "type": "Point",
        "coordinates": [
          100.2451292912544,
          -54.11707431504112
        ]
      }
    },
    {
      "type": "Feature",
      "properties": {
        "norad_id": 30197,
        "name": "FENGYUN 1C DEB",
        "group": "fengyun-1c-debris",
        "lat": 19.35661208333567,
        "lon": 104.66644966709066,
        "alt_km": 731.3967113399494,
        "timestamp": "2025-12-21T18:54:58.771095+00:00",
        "meta_object_name": "FENGYUN 1C DEB",
        "meta_object_id": "1999-025VE",
        "meta_epoch": "2025-12-21T08:42:34.354368",
        "meta_mean_motion": 14.3722639,
        "meta_eccentricity": 0.00572238,
        "meta_inclination": 98.9396,
        "meta_ra_of_asc_node": 281.0548,
        "meta_arg_of_pericenter": 188.8464,
        "meta_mean_anomaly": 292.5723,
        "meta_ephemeris_type": 0,
        "meta_classification_type": "U",
        "meta_norad_cat_id": 30197,
        "meta_element_set_no": 999,
        "meta_rev_at_epoch": 98610,
        "meta_bstar": 0.00053173599,
        "meta_mean_motion_dot": 1.566e-05,
        "meta_mean_motion_ddot": 0,
        "tle_line1": "1 30197U 99025VE  25355.36289762  .00001566  00000+0  53174-3 0  9998",
        "tle_line2": "2 30197  98.9396 281.0548 0057223 188.8464 292.5723 14.37226390986103"
      },
      "geometry": {
        "type": "Point",
        "coordinates": [
          104.66644966709066,
          19.35661208333567
        ]
      }
    },
    {
      "type": "Feature",
      "properties": {
        "norad_id": 30198,
        "name": "FENGYUN 1C DEB",
        "group": "fengyun-1c-debris",
        "lat": -3.228249024832902,
        "lon": -53.61770319450644,
        "alt_km": 653.1857525150544,
        "timestamp": "2025-12-21T18:54:58.771106+00:00",
        "meta_object_name": "FENGYUN 1C DEB",
        "meta_object_id": "1999-025VF",
        "meta_epoch": "2025-12-21T14:51:16.046208",
        "meta_mean_motion": 14.50480064,
        "meta_eccentricity": 0.01069472,
        "meta_inclination": 98.4485,
        "meta_ra_of_asc_node": 126.6928,
        "meta_arg_of_pericenter": 171.3653,
        "meta_mean_anomaly": 208.2857,
        "meta_ephemeris_type": 0,
        "meta_classification_type": "U",
        "meta_norad_cat_id": 30198,
        "meta_element_set_no": 999,
        "meta_rev_at_epoch": 98636,
        "meta_bstar": 0.0015409887,
        "meta_mean_motion_dot": 6.444e-05,
        "meta_mean_motion_ddot": 0,
        "tle_line1": "1 30198U 99025VF  25355.61893572  .00006444  00000+0  15410-2 0  9997",
        "tle_line2": "2 30198  98.4485 126.6928 0106947 171.3653 208.2857 14.50480064986364"
      },
      "geometry": {
        "type": "Point",
        "coordinates": [
          -53.61770319450644,
          -3.228249024832902
        ]
      }
    }
  ]
}